{
"type": "FeatureCollection",
"name": "Car_Parks",
"crs": { "type": "name", "properties": { "name": "urn:ogc:def:crs:OGC:1.3:CRS84" } },
"features": [
{ "type": "Feature", "properties": { "OBJECTID": 15, "DESCRIPTIO": "Union Terrace", "LV_DETAILS": "Clarence Street, York, YO31 7ES", "WEBSITE2": "https://www.york.gov.uk/UnionTerraceCarPark", "CARPARKSPACES": 145, "COACHSPACES": 0, "MOTORCYCLEPARKING": "Yes", "DEDICATEDDISABLEDBAYS": "13", "ResidentContractPermit": "Yes", "SeasonTickets": "Yes", "EveningFreqUserPass": "Yes", "wc_nearest": "Silver Street", "wc_distance": 936, "BlueBadgeDuration": null }, "geometry": { "type": "MultiPolygon", "coordinates": [ [ [ [ -1.083372294733657, 53.965889470167987 ], [ -1.083388739150506, 53.965890314536701 ], [ -1.083457688653683, 53.965901985104196 ], [ -1.083452807210218, 53.965916059034946 ], [ -1.083558939118441, 53.965949134655901 ], [ -1.083572412966864, 53.965953371796701 ], [ -1.083599501267979, 53.965962386423939 ], [ -1.083806393173402, 53.966023283357337 ], [ -1.08384095591326, 53.966033460390328 ], [ -1.083811708914704, 53.966065926882528 ], [ -1.083942241721953, 53.966105479626478 ], [ -1.083892433023262, 53.96616639826626 ], [ -1.083921964037315, 53.966175251666229 ], [ -1.08386026497066, 53.966250100974413 ], [ -1.083842099169795, 53.966272162909412 ], [ -1.08382226076986, 53.966294032340684 ], [ -1.083738399274533, 53.966392441026983 ], [ -1.083696527435036, 53.966438949402978 ], [ -1.083663668608101, 53.966477617012075 ], [ -1.084025877313173, 53.966608994133793 ], [ -1.08402603169294, 53.966608905429737 ], [ -1.084075783472364, 53.966564524187142 ], [ -1.084126540128967, 53.966516016105579 ], [ -1.084159547918308, 53.966484450010853 ], [ -1.084150034555844, 53.966480332976289 ], [ -1.084409271105518, 53.966211409054402 ], [ -1.084426156307907, 53.966192123560205 ], [ -1.084579478351323, 53.966019283360282 ], [ -1.084502060312919, 53.96599056169358 ], [ -1.084546724257294, 53.965948748043104 ], [ -1.084084072924004, 53.965789194225351 ], [ -1.084044698568938, 53.96577738974365 ], [ -1.083609162906609, 53.965625770245381 ], [ -1.083511555225117, 53.965579367527745 ], [ -1.083508223912874, 53.965578353463762 ], [ -1.083442457011177, 53.965560595348549 ], [ -1.083397772095534, 53.96552681950358 ], [ -1.083326041737055, 53.965509914672339 ], [ -1.083322280785717, 53.965507639010895 ], [ -1.083320014367554, 53.965506722938045 ], [ -1.083317738101883, 53.965506256189208 ], [ -1.083315471683887, 53.965505340116273 ], [ -1.083313957456077, 53.965504879175654 ], [ -1.083310919152874, 53.9655044066184 ], [ -1.08330789069745, 53.96550348473702 ], [ -1.083305624279849, 53.965502568663901 ], [ -1.083304569244394, 53.965502021343333 ], [ -1.083318385741596, 53.965546257647503 ], [ -1.08332724705274, 53.965545336510033 ], [ -1.083363452362368, 53.965541747626446 ], [ -1.083386969759316, 53.965623268104842 ], [ -1.083361288332508, 53.96575178027792 ], [ -1.083354959909485, 53.965783189982162 ], [ -1.083345751014586, 53.965827790065312 ], [ -1.0833216193496, 53.965885578621403 ], [ -1.083318611314838, 53.965890678844033 ], [ -1.083329754897648, 53.965889954861048 ], [ -1.083341046950085, 53.965889411768273 ], [ -1.083361020406653, 53.965889204480433 ], [ -1.083372294733657, 53.965889470167987 ] ] ], [ [ [ -1.082682627147088, 53.966833676229008 ], [ -1.082691907953501, 53.966844918176484 ], [ -1.08303242434741, 53.96694359622294 ], [ -1.083101057479579, 53.967011439293202 ], [ -1.083139904448117, 53.966936146703887 ], [ -1.083172011273739, 53.966904034805005 ], [ -1.083168409683399, 53.966893797027552 ], [ -1.083164119292612, 53.966881594598028 ], [ -1.083100234541445, 53.966861334022468 ], [ -1.08313745239462, 53.966818565324857 ], [ -1.083143062106989, 53.966819956286628 ], [ -1.083149098173389, 53.966813719702678 ], [ -1.083162246176898, 53.966800149213725 ], [ -1.082983994044977, 53.966746911613498 ], [ -1.082954068324119, 53.966737974083429 ], [ -1.082734260379303, 53.966672312432564 ], [ -1.082732742172737, 53.966672031214166 ], [ -1.08273137637813, 53.96667175115816 ], [ -1.082729858171614, 53.966671469939733 ], [ -1.082728337994197, 53.96667127858607 ], [ -1.082726815845882, 53.966671177097169 ], [ -1.08272514128564, 53.966671074445827 ], [ -1.082723619137342, 53.966670972956877 ], [ -1.082722096989036, 53.966670871467919 ], [ -1.082720572869817, 53.966670859843724 ], [ -1.082719046779659, 53.966670938084278 ], [ -1.082717368277557, 53.966671015162419 ], [ -1.082715842187387, 53.966671093402944 ], [ -1.082714314126254, 53.966671261508225 ], [ -1.082712174446464, 53.966671514828548 ], [ -1.082710644414336, 53.966671772798577 ], [ -1.082709114382202, 53.966672030768571 ], [ -1.082707734791003, 53.966672379765789 ], [ -1.082706202787852, 53.966672727600539 ], [ -1.082704821225638, 53.966673166462485 ], [ -1.082703441634369, 53.966673515459632 ], [ -1.082702212484028, 53.966673955484012 ], [ -1.082702058101121, 53.966674044186348 ], [ -1.08270082895075, 53.966674484210685 ], [ -1.082699445417435, 53.966675012937358 ], [ -1.082698214296013, 53.966675542826465 ], [ -1.08269713361552, 53.966676163742797 ], [ -1.082695900523047, 53.966676783496652 ], [ -1.082694819842494, 53.966677404412955 ], [ -1.082693739161894, 53.966678025329244 ], [ -1.08269265651026, 53.96667873611031 ], [ -1.082691726270554, 53.966679448053831 ], [ -1.0826907960308, 53.966680159997338 ], [ -1.082689863820022, 53.966680961805615 ], [ -1.082689084021166, 53.966681764776347 ], [ -1.082688304222279, 53.966682567747078 ], [ -1.082687522452335, 53.966683460582608 ], [ -1.082629177960473, 53.966765075839568 ], [ -1.082635716554327, 53.966772765497275 ], [ -1.082640529336931, 53.96678268898637 ], [ -1.082656692778589, 53.966802266757419 ], [ -1.082682627147088, 53.966833676229008 ] ] ] ] } },
{ "type": "Feature", "properties": { "OBJECTID": 16, "DESCRIPTIO": "Rowntree Park", "LV_DETAILS": "Terry Avenue, York, YO23 1JQ", "WEBSITE2": "https://www.york.gov.uk/directory-record/431/rowntree-park-car-park-yo23-1jq", "CARPARKSPACES": 57, "COACHSPACES": 0, "MOTORCYCLEPARKING": null, "DEDICATEDDISABLEDBAYS": "2", "ResidentContractPermit": "No", "SeasonTickets": "No", "EveningFreqUserPass": "No", "wc_nearest": "tbc", "wc_distance": 0, "BlueBadgeDuration": null }, "geometry": { "type": "Polygon", "coordinates": [ [ [ -1.079586500772542, 53.949866259576282 ], [ -1.079595820603073, 53.949844310375674 ], [ -1.079595668253657, 53.949844309209503 ], [ -1.079595517877939, 53.949844218178647 ], [ -1.079595365528524, 53.949844217012462 ], [ -1.079595213179108, 53.949844215846284 ], [ -1.079595062803406, 53.949844124815449 ], [ -1.079594910453976, 53.949844123649264 ], [ -1.079594760078275, 53.949844032618394 ], [ -1.079594607728855, 53.949844031452216 ], [ -1.079594457353154, 53.949843940421381 ], [ -1.079594306977446, 53.94984384939054 ], [ -1.079594154628032, 53.949843848224347 ], [ -1.079594156601741, 53.949843758359698 ], [ -1.079594006226048, 53.949843667328864 ], [ -1.07959385585035, 53.949843576298029 ], [ -1.079593703500923, 53.94984357513183 ], [ -1.079593705474633, 53.949843485267188 ], [ -1.079593555098942, 53.949843394236353 ], [ -1.079593557072657, 53.949843304371697 ], [ -1.079593406696962, 53.949843213340841 ], [ -1.079593408670678, 53.949843123476185 ], [ -1.079593258294983, 53.949843032445351 ], [ -1.0795932602687, 53.949842942580695 ], [ -1.079593109892993, 53.94984285154986 ], [ -1.079593111866709, 53.949842761685211 ], [ -1.079593113840426, 53.949842671820562 ], [ -1.079592963464733, 53.949842580789714 ], [ -1.079592965438451, 53.94984249092505 ], [ -1.079592967412168, 53.949842401060401 ], [ -1.079592971359602, 53.949842221331103 ], [ -1.079592973333319, 53.949842131466454 ], [ -1.079592975307037, 53.949842041601798 ], [ -1.079592977280753, 53.949841951737149 ], [ -1.079592979254471, 53.9498418618725 ], [ -1.079593133577589, 53.949841773174022 ], [ -1.079593135551306, 53.949841683309387 ], [ -1.079593137525028, 53.949841593444724 ], [ -1.079593291848164, 53.94984150474626 ], [ -1.07959329382188, 53.949841414881611 ], [ -1.079593295795597, 53.949841325016955 ], [ -1.079593450118717, 53.949841236318505 ], [ -1.079593604441837, 53.949841147620042 ], [ -1.079593606415554, 53.949841057755386 ], [ -1.079593760738673, 53.949840969056915 ], [ -1.079593762712388, 53.949840879192259 ], [ -1.079593915061805, 53.949840880358444 ], [ -1.079594069384923, 53.949840791659987 ], [ -1.07959422370804, 53.949840702961531 ], [ -1.079594225681755, 53.949840613096875 ], [ -1.079594378031157, 53.949840614263053 ], [ -1.079594532354287, 53.949840525564596 ], [ -1.079594686677402, 53.949840436866133 ], [ -1.079594839026804, 53.949840438032318 ], [ -1.079594993349918, 53.949840349333861 ], [ -1.079595145699333, 53.949840350500047 ], [ -1.079595300022447, 53.949840261801562 ], [ -1.079595452371848, 53.949840262967754 ], [ -1.079595606694954, 53.949840174269291 ], [ -1.079595759044369, 53.949840175435476 ], [ -1.079595911393775, 53.949840176601661 ], [ -1.079596063743171, 53.949840177767847 ], [ -1.079596368441972, 53.949840180100217 ], [ -1.079653040830628, 53.949847624516806 ], [ -1.079666867131548, 53.949849438060731 ], [ -1.079716132064009, 53.949722365628503 ], [ -1.07976869072954, 53.949591004153731 ], [ -1.079752797123728, 53.949558435920267 ], [ -1.079728830670211, 53.949553488865632 ], [ -1.07965980622639, 53.949539568475686 ], [ -1.079622033336162, 53.949531909208829 ], [ -1.079608556765114, 53.949555803949018 ], [ -1.079568047521044, 53.949547854080201 ], [ -1.079581524112656, 53.94952395934461 ], [ -1.079417217945509, 53.949491423338372 ], [ -1.079308893506099, 53.949470011469451 ], [ -1.079298987910132, 53.949490877606863 ], [ -1.079271033766943, 53.949549534801513 ], [ -1.07925809562163, 53.949583590039651 ], [ -1.079248470976284, 53.949605536881286 ], [ -1.079238836448347, 53.949627933045242 ], [ -1.079230725396841, 53.949650340874776 ], [ -1.079216007010591, 53.949696066844957 ], [ -1.079210161421896, 53.949719390819162 ], [ -1.079205888680444, 53.949740479843648 ], [ -1.079201606061753, 53.949762018191137 ], [ -1.079198085184396, 53.949783562371813 ], [ -1.079191379097416, 53.949811373743358 ], [ -1.079223204613107, 53.949819257240407 ], [ -1.079259590749021, 53.949827625050737 ], [ -1.079261084625966, 53.949828984686519 ], [ -1.079261045137308, 53.949830781979387 ], [ -1.079259462410681, 53.949833466252613 ], [ -1.079257929044824, 53.949833903909685 ], [ -1.079255624059888, 53.9498347850569 ], [ -1.079245741095528, 53.949833810579932 ], [ -1.079189628527251, 53.949821696510256 ], [ -1.079172333766031, 53.949818238513359 ], [ -1.079141084088263, 53.949811887368838 ], [ -1.07913370655752, 53.949870252714653 ], [ -1.07916022949345, 53.949876747421712 ], [ -1.079297424659194, 53.949908806543327 ], [ -1.079468701336036, 53.949950114406931 ], [ -1.079591512559711, 53.949978018481019 ], [ -1.079613469086069, 53.949984298373266 ], [ -1.079652221790722, 53.949884918347962 ], [ -1.079654320750401, 53.949879541628242 ], [ -1.079652346127016, 53.949879256874823 ], [ -1.079585487988789, 53.94987074581168 ], [ -1.079585337613013, 53.949870654780824 ], [ -1.079585185263501, 53.949870653614646 ], [ -1.079585034887726, 53.949870562583776 ], [ -1.079584882538194, 53.949870561417576 ], [ -1.079584732162425, 53.949870470386728 ], [ -1.079584579812909, 53.949870469220535 ], [ -1.079584429437136, 53.949870378189686 ], [ -1.079584279061354, 53.949870287158831 ], [ -1.079584126711838, 53.949870285992624 ], [ -1.079583976336067, 53.949870194961775 ], [ -1.079583825960302, 53.949870103930905 ], [ -1.079583675584531, 53.949870012900064 ], [ -1.07958367755827, 53.949869923035408 ], [ -1.079583525208747, 53.949869921869215 ], [ -1.079583374832972, 53.949869830838352 ], [ -1.079583376806718, 53.949869740973703 ], [ -1.07958322643095, 53.949869649942848 ], [ -1.079583076055182, 53.949869558911999 ], [ -1.079583078028923, 53.949869469047357 ], [ -1.079582927653143, 53.949869378016487 ], [ -1.079582931600624, 53.949869198287189 ], [ -1.079582933574365, 53.949869108422533 ], [ -1.0795827831986, 53.94986901739167 ], [ -1.079582785172341, 53.949868927527035 ], [ -1.079582787146076, 53.949868837662379 ], [ -1.079582789119823, 53.949868747797737 ], [ -1.079582791093564, 53.949868657933067 ], [ -1.079582793067305, 53.949868568068418 ], [ -1.079582797014787, 53.949868388339119 ], [ -1.079582798988528, 53.94986829847447 ], [ -1.079582800962264, 53.949868208609821 ], [ -1.07958280293601, 53.949868118745172 ], [ -1.079582804909746, 53.949868028880516 ], [ -1.079582959232988, 53.949867940182074 ], [ -1.079582961206735, 53.949867850317411 ], [ -1.079582963180475, 53.949867760452754 ], [ -1.079583117503731, 53.949867671754312 ], [ -1.079583119477471, 53.949867581889663 ], [ -1.079583273800706, 53.949867493191213 ], [ -1.079583428123951, 53.949867404492771 ], [ -1.07958343009769, 53.949867314628115 ], [ -1.079583584420923, 53.949867225929665 ], [ -1.079583738744176, 53.949867137231209 ], [ -1.07958374071792, 53.949867047366553 ], [ -1.079583895041158, 53.949866958668103 ], [ -1.079584049364388, 53.949866869969654 ], [ -1.07958420368763, 53.949866781271204 ], [ -1.079584356037127, 53.949866782437411 ], [ -1.079584510360376, 53.949866693738961 ], [ -1.07958466468361, 53.949866605040512 ], [ -1.079584817033107, 53.949866606206712 ], [ -1.079584819006843, 53.949866516342063 ], [ -1.079585125679581, 53.949866428809806 ], [ -1.079585278029083, 53.949866429975991 ], [ -1.079585430378574, 53.94986643114219 ], [ -1.07958558470181, 53.949866342443748 ], [ -1.07958573705132, 53.949866343609941 ], [ -1.079585889400811, 53.94986634477614 ], [ -1.079586043724046, 53.949866256077691 ], [ -1.079586196073536, 53.94986625724389 ], [ -1.079586500772542, 53.949866259576282 ] ] ] } },
{ "type": "Feature", "properties": { "OBJECTID": 17, "DESCRIPTIO": "East Parade", "LV_DETAILS": "Heworth, York, YO31 0XH", "WEBSITE2": "https://www.york.gov.uk/directory-record/403/east-parade-car-park-yo31-0xh", "CARPARKSPACES": 14, "COACHSPACES": 0, "MOTORCYCLEPARKING": null, "DEDICATEDDISABLEDBAYS": "0", "ResidentContractPermit": "No", "SeasonTickets": "No", "EveningFreqUserPass": "Yes", "wc_nearest": "tbc", "wc_distance": 0, "BlueBadgeDuration": null }, "geometry": { "type": "Polygon", "coordinates": [ [ [ -1.0665180101507, 53.96547553537696 ], [ -1.066506962964139, 53.965458282523059 ], [ -1.066470993973954, 53.965403446080977 ], [ -1.066413355953097, 53.965315545289599 ], [ -1.066385281936098, 53.965275780087225 ], [ -1.066310886261092, 53.965160155965897 ], [ -1.066145476275684, 53.965161118078434 ], [ -1.066245669302667, 53.965316040446979 ], [ -1.066341551802419, 53.965459244873422 ], [ -1.06637355020181, 53.965507579158547 ], [ -1.0665180101507, 53.96547553537696 ] ] ] } },
{ "type": "Feature", "properties": { "OBJECTID": 18, "DESCRIPTIO": "Foss Bank", "LV_DETAILS": "Jewbury, York, YO31 7PL", "WEBSITE2": "https://www.york.gov.uk/directory-record/405/foss-bank-car-park-yo31-7pl", "CARPARKSPACES": 316, "COACHSPACES": 0, "MOTORCYCLEPARKING": "Yes", "DEDICATEDDISABLEDBAYS": "4", "ResidentContractPermit": "Yes", "SeasonTickets": "Yes", "EveningFreqUserPass": "No", "wc_nearest": "tbc", "wc_distance": 0, "BlueBadgeDuration": null }, "geometry": { "type": "Polygon", "coordinates": [ [ [ -1.074874514577868, 53.961884848790767 ], [ -1.074609560275031, 53.962177461090285 ], [ -1.074609032542291, 53.962201308477653 ], [ -1.074625439728557, 53.962211956078349 ], [ -1.074659011732713, 53.962227530849447 ], [ -1.074802186923738, 53.962296270700335 ], [ -1.075032493434425, 53.962409284936101 ], [ -1.075091382606545, 53.962442035327101 ], [ -1.075125593631938, 53.962467464825032 ], [ -1.075145808332995, 53.962482533169904 ], [ -1.075172160464488, 53.962506037206332 ], [ -1.075217579802292, 53.962525028484684 ], [ -1.075475588961267, 53.962339152354978 ], [ -1.075616525513581, 53.962215019485633 ], [ -1.075849417412826, 53.962047866530114 ], [ -1.075907213934462, 53.962074543924928 ], [ -1.075986430835695, 53.962028965100032 ], [ -1.075990547173165, 53.962022987353755 ], [ -1.07600487486962, 53.962029185907596 ], [ -1.07614249293602, 53.961942132074952 ], [ -1.076054952299824, 53.961898390858806 ], [ -1.075890702949151, 53.96185737761774 ], [ -1.075797697527522, 53.961808992363729 ], [ -1.07552422479817, 53.961663755640423 ], [ -1.075450656905848, 53.961637351378968 ], [ -1.075356783295732, 53.961614767237187 ], [ -1.075292973777008, 53.9616043385737 ], [ -1.075218790908242, 53.961605755381086 ], [ -1.07518837386093, 53.961609496863247 ], [ -1.0751645213433, 53.961621238705455 ], [ -1.075127188165902, 53.961632876868023 ], [ -1.075103290148564, 53.961646605594481 ], [ -1.075076068162859, 53.961658322403792 ], [ -1.07506565077179, 53.961672154803225 ], [ -1.07503833933904, 53.961687845408605 ], [ -1.075034792600577, 53.961695768012831 ], [ -1.075014089609621, 53.961717472078682 ], [ -1.074874514577868, 53.961884848790767 ] ] ] } },
{ "type": "Feature", "properties": { "OBJECTID": 19, "DESCRIPTIO": "Monk Bar", "LV_DETAILS": "St John’s Street, York, YO31 7QR", "WEBSITE2": "https://www.york.gov.uk/directory-record/421/monk-bar-car-park-yo31-7qr", "CARPARKSPACES": 243, "COACHSPACES": 0, "MOTORCYCLEPARKING": "Yes", "DEDICATEDDISABLEDBAYS": "8", "ResidentContractPermit": "Yes", "SeasonTickets": "Yes", "EveningFreqUserPass": "Yes", "wc_nearest": "tbc", "wc_distance": 0, "BlueBadgeDuration": null }, "geometry": { "type": "Polygon", "coordinates": [ [ [ -1.077852872359418, 53.964917421923168 ], [ -1.077994778205899, 53.964986265872113 ], [ -1.078046680983094, 53.964950452058211 ], [ -1.078175004824474, 53.964865405379875 ], [ -1.078362499218193, 53.96474353164426 ], [ -1.07858965318022, 53.964587550061943 ], [ -1.078767639002696, 53.964462932519474 ], [ -1.078910929731624, 53.964365361698384 ], [ -1.079231506463203, 53.964150842870325 ], [ -1.079325345976832, 53.964085604728233 ], [ -1.079301348892264, 53.964071082478718 ], [ -1.079164620144013, 53.963985500020527 ], [ -1.078997962017863, 53.963888815430487 ], [ -1.078851811570614, 53.963812365054324 ], [ -1.078829686965723, 53.963825922948061 ], [ -1.078708711657799, 53.963901357330855 ], [ -1.078573490760307, 53.96399668342287 ], [ -1.078450286404466, 53.964070299276841 ], [ -1.078292242404423, 53.964166888245138 ], [ -1.078223515544776, 53.964209077823419 ], [ -1.078119949155883, 53.964274240553607 ], [ -1.077967251020997, 53.964361968371954 ], [ -1.077745340055478, 53.964500783285281 ], [ -1.077705933189271, 53.964523422032407 ], [ -1.077619644676635, 53.964592035202514 ], [ -1.077498037761372, 53.964688153889448 ], [ -1.077458421479388, 53.964724623467035 ], [ -1.07749472031611, 53.964743457611895 ], [ -1.077581977432779, 53.964786579867237 ], [ -1.077678223968455, 53.964832862867105 ], [ -1.077789095960591, 53.964886287445772 ], [ -1.077852872359418, 53.964917421923168 ] ] ] } },
{ "type": "Feature", "properties": { "OBJECTID": 20, "DESCRIPTIO": "Bishopthorpe Road", "LV_DETAILS": "Bishopthorpe Road, York, YO23 1NA", "WEBSITE2": "https://www.york.gov.uk/directory-record/396/bishopthorpe-road-car-park-yo23-1na", "CARPARKSPACES": 41, "COACHSPACES": 0, "MOTORCYCLEPARKING": null, "DEDICATEDDISABLEDBAYS": "4", "ResidentContractPermit": "No", "SeasonTickets": "No", "EveningFreqUserPass": "Yes", "wc_nearest": "tbc", "wc_distance": 0, "BlueBadgeDuration": null }, "geometry": { "type": "Polygon", "coordinates": [ [ [ -1.085486362475836, 53.951379830459544 ], [ -1.085752824422794, 53.9514615999691 ], [ -1.08581021877424, 53.951421292068183 ], [ -1.085892954101583, 53.951365746240384 ], [ -1.0859145288586, 53.951354675290418 ], [ -1.085936835975579, 53.951344958100584 ], [ -1.085960637229328, 53.95133660046146 ], [ -1.085992066024242, 53.951327851401338 ], [ -1.086024969354053, 53.951321360535673 ], [ -1.086058595248629, 53.951316672748597 ], [ -1.086094457462041, 53.95131424894408 ], [ -1.086130280474663, 53.951313622426142 ], [ -1.08616605449231, 53.951315242519151 ], [ -1.086199503994599, 53.951318642530403 ], [ -1.086220766627052, 53.951321949915297 ], [ -1.086222417553462, 53.95131612027771 ], [ -1.086096003201241, 53.951278308788844 ], [ -1.085999924331084, 53.951247019351584 ], [ -1.085973436713444, 53.951238818700403 ], [ -1.085921219362089, 53.951222602901417 ], [ -1.085903814240833, 53.951217167675061 ], [ -1.085831928088533, 53.951194510720477 ], [ -1.08564866998218, 53.951136133486159 ], [ -1.085642163848242, 53.951134016774809 ], [ -1.085526943942855, 53.951100064757227 ], [ -1.085505751644496, 53.951093611990956 ], [ -1.085414689057731, 53.951111794106701 ], [ -1.08540378889805, 53.951122496766658 ], [ -1.085318130579313, 53.951207230951766 ], [ -1.085365808419571, 53.951221974406955 ], [ -1.08538018403265, 53.951226577748983 ], [ -1.08536927402639, 53.951237729729897 ], [ -1.08535920424752, 53.951245292910507 ], [ -1.085351537476243, 53.951247481583657 ], [ -1.085345472712055, 53.951246087251995 ], [ -1.085322628005921, 53.951238543326582 ], [ -1.085231350526282, 53.951273531189273 ], [ -1.085499887700809, 53.951362307907402 ], [ -1.085486362475836, 53.951379830459544 ] ] ] } },
{ "type": "Feature", "properties": { "OBJECTID": 21, "DESCRIPTIO": "Bootham Row", "LV_DETAILS": "Bootham Row, York, YO30 7BP", "WEBSITE2": "https://www.york.gov.uk/directory-record/397/bootham-row-car-park-yo30-7bp", "CARPARKSPACES": 100, "COACHSPACES": 0, "MOTORCYCLEPARKING": "Yes", "DEDICATEDDISABLEDBAYS": "8", "ResidentContractPermit": "No", "SeasonTickets": "Yes", "EveningFreqUserPass": "Yes", "wc_nearest": "St Leonard's Place", "wc_distance": 200, "BlueBadgeDuration": null }, "geometry": { "type": "Polygon", "coordinates": [ [ [ -1.085680719534324, 53.963431075424253 ], [ -1.085671395440376, 53.963426763112132 ], [ -1.08553421876045, 53.963363320221276 ], [ -1.085457830024096, 53.96344006210596 ], [ -1.085245859493918, 53.963617208503209 ], [ -1.085230072423121, 53.963609974441944 ], [ -1.085304754121436, 53.96364514616905 ], [ -1.085380443870814, 53.963689433037231 ], [ -1.08529402111601, 53.963764520225489 ], [ -1.085241785571295, 53.963803510985294 ], [ -1.085137116987083, 53.963890578685159 ], [ -1.085077208840428, 53.963927995638585 ], [ -1.084972407029914, 53.964021122781119 ], [ -1.084878509265098, 53.964085548752138 ], [ -1.084856828832522, 53.964095541997636 ], [ -1.084817856275558, 53.964128141451539 ], [ -1.084923618983448, 53.964177930732809 ], [ -1.085035866438198, 53.964230914998346 ], [ -1.085082619915759, 53.964253740614652 ], [ -1.085090923452438, 53.964257398971831 ], [ -1.085124386884128, 53.964232756808691 ], [ -1.08522105442374, 53.964161767983967 ], [ -1.085378336535209, 53.96404432277609 ], [ -1.085530917992526, 53.963932683814356 ], [ -1.085640158426174, 53.963851274314365 ], [ -1.085640949896264, 53.963849932134124 ], [ -1.085642493551853, 53.963849045071342 ], [ -1.085644047028455, 53.963847708684128 ], [ -1.085644838498346, 53.963846366503837 ], [ -1.085645305523397, 53.96384592065521 ], [ -1.085645620147102, 53.963845473648 ], [ -1.085663389090966, 53.963824107681518 ], [ -1.085690303736339, 53.963796389324976 ], [ -1.085865165994491, 53.963679823136985 ], [ -1.085823622845794, 53.96365468706751 ], [ -1.085857467440492, 53.963626718452822 ], [ -1.085746693112997, 53.963571498258716 ], [ -1.08571976296645, 53.963556624259283 ], [ -1.085755374746303, 53.963531279216767 ], [ -1.085774240546472, 53.963518929327719 ], [ -1.085675406441517, 53.963472968465986 ], [ -1.085713034725125, 53.963446020928899 ], [ -1.085680719534324, 53.963431075424253 ] ] ] } },
{ "type": "Feature", "properties": { "OBJECTID": 22, "DESCRIPTIO": "Coppergate Centre", "LV_DETAILS": "Piccadilly, York, YO1 9NX", "WEBSITE2": "https://www.york.gov.uk/directory-record/428/coppergate-centre-car-park-yo1-9nx", "CARPARKSPACES": 287, "COACHSPACES": 0, "MOTORCYCLEPARKING": null, "DEDICATEDDISABLEDBAYS": "18, plus 10 Shopmobility,", "ResidentContractPermit": "No", "SeasonTickets": "Yes", "EveningFreqUserPass": "No", "wc_nearest": "Coppergate Shopping Centre", "wc_distance": 25, "BlueBadgeDuration": null }, "geometry": { "type": "Polygon", "coordinates": [ [ [ -1.079206582130237, 53.957583984164096 ], [ -1.079331899926944, 53.957516871466503 ], [ -1.079961108818615, 53.957554305394765 ], [ -1.080049713756975, 53.957625892085559 ], [ -1.080211093554899, 53.957559053452492 ], [ -1.080179149284885, 53.957535409823315 ], [ -1.080151967396755, 53.957513929168933 ], [ -1.080096477749506, 53.957467414371905 ], [ -1.080046065405089, 53.957463482961685 ], [ -1.080055835648127, 53.957401866954775 ], [ -1.079867269754217, 53.957392624487468 ], [ -1.079665770636878, 53.957260610383834 ], [ -1.07953542012019, 53.957173813489497 ], [ -1.079498620821003, 53.957152259066937 ], [ -1.079506504136429, 53.957121828608926 ], [ -1.079758351875987, 53.956986902587516 ], [ -1.079760500658225, 53.956920647103516 ], [ -1.079709357699675, 53.956886873478737 ], [ -1.079752290536226, 53.956864947815269 ], [ -1.079743774942678, 53.956823155977155 ], [ -1.079641550453555, 53.956752828279832 ], [ -1.079589611891809, 53.956755212526929 ], [ -1.079451645111283, 53.956827847043826 ], [ -1.079355517859374, 53.956770384426349 ], [ -1.079360513757557, 53.956761913759387 ], [ -1.079235555761812, 53.956758120412019 ], [ -1.079235603667483, 53.956766411286772 ], [ -1.079121274595425, 53.956760791059018 ], [ -1.079127753287029, 53.956739567933603 ], [ -1.079070615365561, 53.956768202865348 ], [ -1.079059276115343, 53.956848515256908 ], [ -1.079052420167555, 53.956945825885555 ], [ -1.079039258447679, 53.957115415348333 ], [ -1.078771795211718, 53.957266365342839 ], [ -1.078742325554068, 53.957317357548895 ], [ -1.078923635082824, 53.957439999603992 ], [ -1.0789184909362, 53.957459433546504 ], [ -1.07908076229463, 53.957564584539284 ], [ -1.079149222610547, 53.957567945410212 ], [ -1.079167457554105, 53.957558866980321 ], [ -1.079206582130237, 53.957583984164096 ] ] ] } },
{ "type": "Feature", "properties": { "OBJECTID": 23, "DESCRIPTIO": "St Georges Field", "LV_DETAILS": "St Georges Field, Tower Street, York", "WEBSITE2": "https://www.york.gov.uk/StGeorgesFieldCarPark", "CARPARKSPACES": 260, "COACHSPACES": 0, "MOTORCYCLEPARKING": null, "DEDICATEDDISABLEDBAYS": "7", "ResidentContractPermit": "Yes", "SeasonTickets": "Yes", "EveningFreqUserPass": "Yes", "wc_nearest": "St George's Field", "wc_distance": 25, "BlueBadgeDuration": null }, "geometry": { "type": "Polygon", "coordinates": [ [ [ -1.079508411164825, 53.953865133546742 ], [ -1.079506719711038, 53.953872760380548 ], [ -1.079423175205559, 53.954047745918245 ], [ -1.079447419973212, 53.954067884839503 ], [ -1.079559929439603, 53.954086632182822 ], [ -1.079678058746126, 53.954106231350494 ], [ -1.079694043344742, 53.954072289251435 ], [ -1.079698997597785, 53.954061811233906 ], [ -1.079703310807487, 53.954052766386567 ], [ -1.079805803744401, 53.954069639242825 ], [ -1.079861100741047, 53.954077522414472 ], [ -1.079923824170798, 53.954087259980177 ], [ -1.079919204301813, 53.954096392368584 ], [ -1.079913947343124, 53.954106778198927 ], [ -1.079909167211081, 53.954116268879773 ], [ -1.07995001526434, 53.954122873013482 ], [ -1.079935621599466, 53.954153771406055 ], [ -1.079896896762784, 53.954147632912886 ], [ -1.079847551993198, 53.954252441634289 ], [ -1.079843348015047, 53.954261370478626 ], [ -1.079827430566147, 53.954292257197707 ], [ -1.07986007076713, 53.954297899753868 ], [ -1.079779506416543, 53.954323348378978 ], [ -1.079629844348309, 53.9543725356382 ], [ -1.079553078994353, 53.9543984625885 ], [ -1.079508547345796, 53.95441385066917 ], [ -1.079441012661642, 53.954435803618388 ], [ -1.079451857665746, 53.95446240117731 ], [ -1.079450832899898, 53.954467426599919 ], [ -1.079510948474936, 53.954471032589396 ], [ -1.079551468035045, 53.954471792156944 ], [ -1.079588483172117, 53.954472524886931 ], [ -1.079605540300261, 53.954473014965423 ], [ -1.07966951440444, 53.954474403414778 ], [ -1.079733527989831, 53.95447399453667 ], [ -1.079780009580959, 53.954473900857224 ], [ -1.079838729816567, 53.954471653818899 ], [ -1.079874565499682, 53.954470579839743 ], [ -1.079887546237258, 53.954469330970092 ], [ -1.079967735874045, 53.954460956562606 ], [ -1.080076221753287, 53.954447855190828 ], [ -1.080148080495198, 53.954437169935119 ], [ -1.080193186347258, 53.954430324588984 ], [ -1.080235234998214, 53.954423905240546 ], [ -1.080269685057207, 53.954416528960991 ], [ -1.080289591283682, 53.954412187226332 ], [ -1.080319480204161, 53.954404326647861 ], [ -1.080376200829043, 53.954389031486699 ], [ -1.080451353249491, 53.954367136267813 ], [ -1.080505046180045, 53.954350919095141 ], [ -1.080511814030416, 53.954348759804212 ], [ -1.08054247602842, 53.95433899963075 ], [ -1.080572570314654, 53.954329414868262 ], [ -1.080617862066324, 53.954315825307795 ], [ -1.080575602557711, 53.954260680027154 ], [ -1.080457171420292, 53.954102035425485 ], [ -1.080366921163947, 53.953978659340599 ], [ -1.080353573261791, 53.953961929497602 ], [ -1.080325570822638, 53.953918573037662 ], [ -1.080138476076858, 53.953675194559679 ], [ -1.080124227947515, 53.953657136570236 ], [ -1.080099529737291, 53.953624330253767 ], [ -1.080053735663483, 53.95363618558914 ], [ -1.079571388444494, 53.9537610467818 ], [ -1.079562891787906, 53.953762408135908 ], [ -1.079469968035156, 53.953645038231301 ], [ -1.079185023394982, 53.953268183615066 ], [ -1.079178675391167, 53.95325748424704 ], [ -1.07917757646249, 53.953254096351152 ], [ -1.079177375445275, 53.953245214687598 ], [ -1.079180414942624, 53.953240042911162 ], [ -1.079190333766107, 53.953232488072366 ], [ -1.079202954276347, 53.953228198582124 ], [ -1.079319404382007, 53.953199268141312 ], [ -1.079705057042255, 53.953104628855115 ], [ -1.079595044002773, 53.952973739741815 ], [ -1.079584566278543, 53.952965120959675 ], [ -1.079558652106874, 53.952938452995873 ], [ -1.079543497363032, 53.952922841712081 ], [ -1.079395764284778, 53.952770703691151 ], [ -1.079382132177044, 53.952753072759947 ], [ -1.079298342576028, 53.952675763746548 ], [ -1.079280454342735, 53.952657650815418 ], [ -1.079184938783463, 53.952566140803292 ], [ -1.079146125214601, 53.952529442245364 ], [ -1.079125981347425, 53.952509963819061 ], [ -1.078999884745756, 53.952388559112059 ], [ -1.078943728055089, 53.952343638463667 ], [ -1.07892536615344, 53.952329063113993 ], [ -1.07889084918657, 53.952327073015375 ], [ -1.078881731852915, 53.952333528447909 ], [ -1.078869880707447, 53.952338183317067 ], [ -1.078867964768348, 53.952338689942955 ], [ -1.078858219626844, 53.95234043086203 ], [ -1.078844131034399, 53.95234080828525 ], [ -1.078807247705813, 53.952343177181625 ], [ -1.078799129391892, 53.952343699205592 ], [ -1.078780813309328, 53.952361004555414 ], [ -1.078748250881945, 53.952359523729051 ], [ -1.078715112742692, 53.95236066297354 ], [ -1.078737293275309, 53.952376211350462 ], [ -1.078801907389601, 53.952382997967483 ], [ -1.078797950247065, 53.952389708637668 ], [ -1.078796406903506, 53.95239059561213 ], [ -1.078795615474786, 53.952391937746128 ], [ -1.078794062252601, 53.952393274043942 ], [ -1.078793280702237, 53.952394166854525 ], [ -1.078791727479914, 53.952395503152324 ], [ -1.078790184136005, 53.952396390126673 ], [ -1.0787886309135, 53.952397726424429 ], [ -1.078785544225323, 53.952399500373062 ], [ -1.078737941575045, 53.952416033075835 ], [ -1.078758061506597, 53.952436589942806 ], [ -1.078832272350703, 53.952507309674935 ], [ -1.078929548052996, 53.952474340926898 ], [ -1.079153544296903, 53.952704270350416 ], [ -1.07905626823193, 53.952737239277241 ], [ -1.079111330888109, 53.952795220012916 ], [ -1.079156169958736, 53.952835110516673 ], [ -1.079178698145691, 53.952850113204832 ], [ -1.079162581811768, 53.952855382575166 ], [ -1.07915874317814, 53.952856701375886 ], [ -1.079149483057237, 53.952862023249459 ], [ -1.079147158151804, 53.952863803041147 ], [ -1.079144071444085, 53.952865576998782 ], [ -1.079141736663288, 53.952867806113765 ], [ -1.079140193309205, 53.952868693092519 ], [ -1.079137858528027, 53.952870922207424 ], [ -1.079134761944393, 53.952873145488205 ], [ -1.079133198839945, 53.952874931113691 ], [ -1.079127761548545, 53.952879653103096 ], [ -1.079126936545695, 53.952882522938744 ], [ -1.079125373440565, 53.952884308564101 ], [ -1.079124572137727, 53.952886100023576 ], [ -1.079123780709947, 53.952887442159657 ], [ -1.07912217810394, 53.952891025078557 ], [ -1.079122138603399, 53.952892822372156 ], [ -1.079121327425116, 53.952895063154998 ], [ -1.079121287924534, 53.95289686044859 ], [ -1.07912048662128, 53.952898651908043 ], [ -1.07912039774487, 53.952902695818615 ], [ -1.079118854389021, 53.952903582797092 ], [ -1.079116480103953, 53.952907609205148 ], [ -1.079114936747839, 53.952908496183568 ], [ -1.079114145319318, 53.952909838319556 ], [ -1.079112601963091, 53.952910725297947 ], [ -1.079111048731523, 53.952912061599719 ], [ -1.079107962018708, 53.952913835556387 ], [ -1.079106408786876, 53.952915171858088 ], [ -1.079101778716901, 53.95291783279287 ], [ -1.079099473557074, 53.95291871393681 ], [ -1.079097940075614, 53.952919151591615 ], [ -1.079095634915634, 53.95292003273547 ], [ -1.079093339631026, 53.952920464555902 ], [ -1.079091796273952, 53.952921351534009 ], [ -1.07908797738305, 53.952921771685652 ], [ -1.079086443901365, 53.952922209340286 ], [ -1.07908414861653, 53.952922641160548 ], [ -1.079080339601032, 53.952922611988548 ], [ -1.079078044316134, 53.952923043808681 ], [ -1.079068140875779, 53.95292296796071 ], [ -1.07906662714533, 53.952922506968314 ], [ -1.079062818129869, 53.952922477795767 ], [ -1.079060542596399, 53.952922010968763 ], [ -1.079003935030355, 53.952904500243221 ], [ -1.078916239816677, 53.952935556096591 ], [ -1.078883993184517, 53.952946723816723 ], [ -1.078829208861887, 53.952894803009109 ], [ -1.078801865435841, 53.952904749952232 ], [ -1.078792565744395, 53.952911869091487 ], [ -1.078783256170974, 53.952919437553327 ], [ -1.078775460321533, 53.95292746701049 ], [ -1.078766081588693, 53.952938180734449 ], [ -1.078758216578962, 53.952949355453889 ], [ -1.07875263697616, 53.952960547682288 ], [ -1.078748571098994, 53.952972200906814 ], [ -1.078747552436083, 53.952983877477301 ], [ -1.078748057381299, 53.952995565720819 ], [ -1.07874770173016, 53.95301174136123 ], [ -1.078747529182832, 53.953061173932724 ], [ -1.07878319156177, 53.953060997753845 ], [ -1.078784260746733, 53.953081678300272 ], [ -1.078892456947262, 53.953081608359668 ], [ -1.078885805560775, 53.953280191772954 ], [ -1.078883205256229, 53.953329156345539 ], [ -1.07887083221956, 53.953441411314031 ], [ -1.078880818440092, 53.953541703787245 ], [ -1.078894011236929, 53.953669434158563 ], [ -1.078903117208837, 53.953775112670591 ], [ -1.078916964542262, 53.953942395156218 ], [ -1.078930999653593, 53.954101140493655 ], [ -1.078930871244374, 53.95410698169637 ], [ -1.078931504659872, 53.954112828734509 ], [ -1.078932899900406, 53.954118681608044 ], [ -1.078934997700697, 53.954127236256724 ], [ -1.07894226036018, 53.954143470248844 ], [ -1.078958289592978, 53.954176848548869 ], [ -1.078982323612471, 53.95422736531799 ], [ -1.079005055972979, 53.954129121064433 ], [ -1.078989411761704, 53.954126754246538 ], [ -1.079056894176664, 53.953989305622052 ], [ -1.079059881067209, 53.953983063876635 ], [ -1.079070311038477, 53.95396127600393 ], [ -1.079092034008315, 53.953915873317477 ], [ -1.079103094533614, 53.953897982065868 ], [ -1.079114906994344, 53.953880545970733 ], [ -1.079127481265384, 53.953863115708515 ], [ -1.079142360736203, 53.953844804300516 ], [ -1.079144238480232, 53.953842571685648 ], [ -1.079217310968983, 53.953776620212295 ], [ -1.079401020836, 53.953793755787395 ], [ -1.079423093843826, 53.953794823572814 ], [ -1.07944282216347, 53.953798569797904 ], [ -1.079459434106949, 53.953805437955133 ], [ -1.079477688313221, 53.953817392396139 ], [ -1.079494657196259, 53.953832222136164 ], [ -1.079507242008162, 53.953850651254555 ], [ -1.079507213278651, 53.953850294211854 ], [ -1.079507296665239, 53.953850729868357 ], [ -1.079507242008162, 53.953850651254555 ], [ -1.079508411164825, 53.953865133546742 ] ] ] } },
{ "type": "Feature", "properties": { "OBJECTID": 24, "DESCRIPTIO": "Esplanade", "LV_DETAILS": "West Esplanade, York, YO1 6FZ", "WEBSITE2": "https://www.york.gov.uk/directory-record/404/esplanade-car-park-yo26-4zp", "CARPARKSPACES": 75, "COACHSPACES": 0, "MOTORCYCLEPARKING": "Yes", "DEDICATEDDISABLEDBAYS": "5", "ResidentContractPermit": "No", "SeasonTickets": "Yes", "EveningFreqUserPass": "Yes", "wc_nearest": "Rougier Street", "wc_distance": 363, "BlueBadgeDuration": null }, "geometry": { "type": "Polygon", "coordinates": [ [ [ -1.090280048147718, 53.96035642800048 ], [ -1.090369527530727, 53.960376878375264 ], [ -1.090459026537564, 53.960396430033128 ], [ -1.090547763688469, 53.960415975862418 ], [ -1.090666841967657, 53.960442042627342 ], [ -1.090906561924766, 53.960492390021649 ], [ -1.090977901659425, 53.960505961833796 ], [ -1.09105074581298, 53.960520443771316 ], [ -1.091122828073692, 53.960534919906436 ], [ -1.091232832032417, 53.960557771734848 ], [ -1.091342083926688, 53.960580168380517 ], [ -1.09145285983648, 53.960602576439136 ], [ -1.091542389137323, 53.960620779314304 ], [ -1.091631218942224, 53.960460565480489 ], [ -1.091613020064789, 53.960456383431641 ], [ -1.091606973280414, 53.960454090764316 ], [ -1.091598630911069, 53.960452230156243 ], [ -1.091591812430402, 53.960450381058131 ], [ -1.091563004872272, 53.960443422476175 ], [ -1.091534168060798, 53.960437811862981 ], [ -1.091504579068567, 53.960431746161802 ], [ -1.091446172809699, 53.960419171168596 ], [ -1.091388499262373, 53.960407949879183 ], [ -1.091328539918665, 53.960396711291274 ], [ -1.091297427102306, 53.960390634025224 ], [ -1.091265552352735, 53.960384550993766 ], [ -1.09123366785509, 53.960378917279051 ], [ -1.091191897631466, 53.960372310054453 ], [ -1.091106794304759, 53.960360881345792 ], [ -1.091095083674154, 53.960352703661719 ], [ -1.090632488728212, 53.960297525802638 ], [ -1.09061454988807, 53.960295412802786 ], [ -1.09042597065075, 53.96027282989494 ], [ -1.0904246800209, 53.960272675427241 ], [ -1.090423466776373, 53.960272396611892 ], [ -1.090422405919914, 53.96027211894905 ], [ -1.090421192675406, 53.960271840133679 ], [ -1.090420133772327, 53.96027147260579 ], [ -1.090419072915929, 53.960271194942948 ], [ -1.090418015966239, 53.960270737550019 ], [ -1.090405167128339, 53.960269494403512 ], [ -1.090332309860893, 53.960262447726031 ], [ -1.090304098067657, 53.960259719494161 ], [ -1.090303027444321, 53.960259891155395 ], [ -1.090301960728211, 53.960259883086572 ], [ -1.09030158372419, 53.960259908097584 ], [ -1.090291561808471, 53.960258961354377 ], [ -1.090255780127145, 53.960255580845988 ], [ -1.090157735212176, 53.960248460369939 ], [ -1.090135709724251, 53.960246861052752 ], [ -1.090111757096107, 53.960245501511139 ], [ -1.090069166673354, 53.960241582284937 ], [ -1.090041775889323, 53.960239579241538 ], [ -1.09001514708677, 53.960237580159827 ], [ -1.089987062326961, 53.96030253051115 ], [ -1.090179940752653, 53.960334099560029 ], [ -1.090280048147718, 53.96035642800048 ] ] ] } },
{ "type": "Feature", "properties": { "OBJECTID": 25, "DESCRIPTIO": "Marygate", "LV_DETAILS": "Frederick Street, York, YO30 7DT", "WEBSITE2": "https://www.york.gov.uk/directory-record/418/marygate-car-park-yo30-7dt", "CARPARKSPACES": 350, "COACHSPACES": 0, "MOTORCYCLEPARKING": "No", "DEDICATEDDISABLEDBAYS": "11", "ResidentContractPermit": "Yes", "SeasonTickets": "Yes", "EveningFreqUserPass": "Yes", "wc_nearest": "tbc", "wc_distance": 0, "BlueBadgeDuration": null }, "geometry": { "type": "Polygon", "coordinates": [ [ [ -1.090763289519757, 53.962698243692202 ], [ -1.090673931704831, 53.962840913754683 ], [ -1.090712932046639, 53.962850456344022 ], [ -1.090730463473142, 53.962873684388207 ], [ -1.090741881845576, 53.962882645439578 ], [ -1.090780339885972, 53.962916866685347 ], [ -1.090865978510785, 53.962984576041158 ], [ -1.090973034187687, 53.963068855654868 ], [ -1.09109792270715, 53.963177048519967 ], [ -1.091169089022728, 53.96314984222613 ], [ -1.091257387274386, 53.963178730757058 ], [ -1.091384595281873, 53.96297575739451 ], [ -1.091617918859422, 53.962584812780392 ], [ -1.091970274884383, 53.962004509911864 ], [ -1.092134012371718, 53.961733437335376 ], [ -1.092066306267376, 53.961722910924479 ], [ -1.092080607562667, 53.961689970101972 ], [ -1.091874205968453, 53.961653359567698 ], [ -1.091696540650938, 53.961622975066092 ], [ -1.091534137391609, 53.961593705947273 ], [ -1.091502790792039, 53.961629523529318 ], [ -1.091431733201762, 53.961616968021318 ], [ -1.091259122802567, 53.961892785693152 ], [ -1.091204594888343, 53.961987806207389 ], [ -1.091084243909225, 53.962182199165618 ], [ -1.090972604804791, 53.962364704742257 ], [ -1.090925621577091, 53.962445149730634 ], [ -1.090877324393719, 53.9625180834039 ], [ -1.09085469755089, 53.962557151172426 ], [ -1.090763289519757, 53.962698243692202 ] ] ] } },
{ "type": "Feature", "properties": { "OBJECTID": 26, "DESCRIPTIO": "Nunnery Lane", "LV_DETAILS": "Nunnery Lane, York, YO23 1AA", "WEBSITE2": "https://www.york.gov.uk/directory-record/424/nunnery-lane-car-park-yo23-1aa", "CARPARKSPACES": 193, "COACHSPACES": 0, "MOTORCYCLEPARKING": "Yes", "DEDICATEDDISABLEDBAYS": "12", "ResidentContractPermit": "Yes", "SeasonTickets": "Yes", "EveningFreqUserPass": "Yes", "wc_nearest": "Nunnery Lane", "wc_distance": 25, "BlueBadgeDuration": null }, "geometry": { "type": "Polygon", "coordinates": [ [ [ -1.090078824754743, 53.955123378796841 ], [ -1.08868328264365, 53.954560859673933 ], [ -1.088286579887003, 53.954405257519788 ], [ -1.088077128450605, 53.954324736039851 ], [ -1.087969291908634, 53.954283217966939 ], [ -1.087697057337946, 53.95418055051168 ], [ -1.087553065281809, 53.954287460099472 ], [ -1.087701138755473, 53.954360405570249 ], [ -1.087819904770458, 53.954421452264214 ], [ -1.087880000570656, 53.954446574709714 ], [ -1.088027565890952, 53.954510501879597 ], [ -1.08834544590733, 53.954647932249017 ], [ -1.088495305366608, 53.954711475360597 ], [ -1.088542991696311, 53.954730336755723 ], [ -1.088650721154614, 53.954776786980382 ], [ -1.088757613500692, 53.954820887599716 ], [ -1.088847658327375, 53.954855979455836 ], [ -1.088880790460419, 53.954871030985437 ], [ -1.088920247729521, 53.95488366323243 ], [ -1.089039790563146, 53.954933032017202 ], [ -1.08916998960916, 53.954984407517756 ], [ -1.08934519209233, 53.95505584958385 ], [ -1.089517283972396, 53.955123753542395 ], [ -1.089583628061736, 53.955150155574991 ], [ -1.089724464172633, 53.955212889092984 ], [ -1.089784589054306, 53.955236777635953 ], [ -1.090023918643425, 53.955343499179854 ], [ -1.090134672980452, 53.955389894536275 ], [ -1.090165876307519, 53.955404541930186 ], [ -1.090178533839467, 53.955394945977844 ], [ -1.090223980985343, 53.955360491128388 ], [ -1.090407626777593, 53.955395135857735 ], [ -1.090438013003444, 53.955399410283256 ], [ -1.090467647138977, 53.955403229614362 ], [ -1.090482884148898, 53.955403344860869 ], [ -1.090497388569059, 53.955402106370173 ], [ -1.090518769149168, 53.955400021087648 ], [ -1.090534875293139, 53.955395199521625 ], [ -1.090549467485834, 53.955389917105357 ], [ -1.090558726723623, 53.955384594354847 ], [ -1.090587582440802, 53.955359120493405 ], [ -1.090608499378443, 53.955338233365104 ], [ -1.090419845544445, 53.955258049498454 ], [ -1.090078824754743, 53.955123378796841 ] ] ] } },
{ "type": "Feature", "properties": { "OBJECTID": 31, "DESCRIPTIO": "Castle", "LV_DETAILS": "Tower Street, York, YO1 9SA", "WEBSITE2": "https://www.york.gov.uk/directory-record/399/castle-car-park-yo1-9sa", "CARPARKSPACES": 318, "COACHSPACES": 0, "MOTORCYCLEPARKING": null, "DEDICATEDDISABLEDBAYS": "30", "ResidentContractPermit": "No", "SeasonTickets": "Yes", "EveningFreqUserPass": "Yes", "wc_nearest": "Coppergate Shopping Centre", "wc_distance": 25, "BlueBadgeDuration": null }, "geometry": { "type": "Polygon", "coordinates": [ [ [ -1.07888841462941, 53.956442632662174 ], [ -1.078921049962932, 53.956434703585174 ], [ -1.078916217237349, 53.956425768472144 ], [ -1.078916286387795, 53.956422623210386 ], [ -1.078918631259979, 53.956419944778766 ], [ -1.078999545904705, 53.956378770447664 ], [ -1.079193381679611, 53.956504288944956 ], [ -1.079294831722211, 53.956568880369424 ], [ -1.079352623626164, 53.956539662525138 ], [ -1.07940522382861, 53.956573320732211 ], [ -1.07950616408105, 53.956522412596428 ], [ -1.079600197920399, 53.956473698508404 ], [ -1.079708884676944, 53.956417007311337 ], [ -1.079722736460907, 53.956410821737563 ], [ -1.079736558631371, 53.956405984131806 ], [ -1.079754209871039, 53.956400277029928 ], [ -1.079770317634003, 53.956395456911359 ], [ -1.079791768327618, 53.95639022827843 ], [ -1.079853054698463, 53.956375417695732 ], [ -1.079974842663185, 53.956346689230124 ], [ -1.079979443458852, 53.95634537623414 ], [ -1.079983282388601, 53.956344057409055 ], [ -1.079987873316635, 53.956343193735982 ], [ -1.079998578903345, 53.956341478046944 ], [ -1.080003159963864, 53.956341063696534 ], [ -1.080013845815804, 53.95634024665263 ], [ -1.080023750068373, 53.956340322425625 ], [ -1.080028311395219, 53.956340806720753 ], [ -1.080033644454379, 53.956340847521055 ], [ -1.080040491378229, 53.956341349301518 ], [ -1.080054165493689, 53.956343251507725 ], [ -1.080058716954901, 53.956344185124955 ], [ -1.080064020415726, 53.956345573893678 ], [ -1.080068562011208, 53.956346956833791 ], [ -1.080082938799146, 53.956351560804663 ], [ -1.080110950250164, 53.956359864266638 ], [ -1.080121080328734, 53.956363536948942 ], [ -1.080198185425331, 53.956308401312455 ], [ -1.080179959854538, 53.956305565510164 ], [ -1.0801633172072, 53.95630004542106 ], [ -1.080158929959647, 53.956298573785425 ], [ -1.080139115109211, 53.956291771111012 ], [ -1.080098309854455, 53.956276179404988 ], [ -1.080091057124851, 53.956273337649968 ], [ -1.080071480230113, 53.956179353428482 ], [ -1.080058528564938, 53.956179254345891 ], [ -1.080041787319485, 53.956178227472741 ], [ -1.080024284212264, 53.956177194768628 ], [ -1.080007542968533, 53.956176167890703 ], [ -1.079990811592631, 53.956174691687224 ], [ -1.079974851947642, 53.956172771987099 ], [ -1.079959654166619, 53.956170858113921 ], [ -1.079942942529637, 53.956168483257251 ], [ -1.079911062721802, 53.956162846549198 ], [ -1.079894380694933, 53.956159123716048 ], [ -1.079877708539247, 53.95615495155733 ], [ -1.079861798249017, 53.956150785226015 ], [ -1.079820914285372, 53.95613878801224 ], [ -1.079801242519457, 53.956132345895334 ], [ -1.079786875707205, 53.956127292567736 ], [ -1.079771737167569, 53.956122682731433 ], [ -1.079758142093186, 53.956117185907438 ], [ -1.079745308883739, 53.95611169491233 ], [ -1.079721166197299, 53.956100724579144 ], [ -1.079713636415306, 53.956096622364178 ], [ -1.079706096764767, 53.956092969471989 ], [ -1.079694876122717, 53.956083446223751 ], [ -1.079674572380063, 53.956071157065153 ], [ -1.079658048339618, 53.956060245027672 ], [ -1.079640762447622, 53.956049327156883 ], [ -1.079628770101258, 53.956040247394647 ], [ -1.079617529749014, 53.956031622785659 ], [ -1.079603330802499, 53.956018930941433 ], [ -1.079591417442759, 53.956006256589696 ], [ -1.079580295563425, 53.95599224009856 ], [ -1.079570044136291, 53.955973286882447 ], [ -1.079561306563711, 53.955954794651802 ], [ -1.079554122329822, 53.955934966114079 ], [ -1.079547699960366, 53.95591514340753 ], [ -1.079542732209695, 53.95589847762654 ], [ -1.079539298048877, 53.955881374185509 ], [ -1.079535656583551, 53.955873706532074 ], [ -1.079539286443867, 53.955847219788502 ], [ -1.07954520186742, 53.955820750539701 ], [ -1.079549356653799, 53.9558050533848 ], [ -1.079551815960748, 53.955797162790766 ], [ -1.079522583366948, 53.955775098244992 ], [ -1.079380168910834, 53.955667590377452 ], [ -1.079258560273122, 53.955688230431541 ], [ -1.079225639158497, 53.955691718248879 ], [ -1.079193551802095, 53.955694713609013 ], [ -1.079172223934973, 53.955698804298557 ], [ -1.079126929172255, 53.955700237956179 ], [ -1.07909874876763, 53.955702284419949 ], [ -1.079055224605301, 53.955704214264628 ], [ -1.078996406446642, 53.955703763783433 ], [ -1.078890826044953, 53.955736142288316 ], [ -1.078830724069908, 53.955769681609951 ], [ -1.078751703735919, 53.955798495693891 ], [ -1.078690775864538, 53.955821349104831 ], [ -1.078299175071622, 53.955967597105435 ], [ -1.078333774240873, 53.956000138124004 ], [ -1.078397649856575, 53.956060215277063 ], [ -1.078546865157388, 53.956199296354903 ], [ -1.078644500772973, 53.956291453993195 ], [ -1.078745797686341, 53.956387897202966 ], [ -1.078793029418536, 53.956432866366093 ], [ -1.078797552414142, 53.956437173000332 ], [ -1.07885390222101, 53.956418100759677 ], [ -1.078871791858633, 53.956436213748461 ], [ -1.078873285955493, 53.956437573389714 ], [ -1.078877758367623, 53.956442101636441 ], [ -1.078880133116839, 53.956444995979275 ], [ -1.07888841462941, 53.956442632662174 ] ] ] } }
]
}
